[{"OBJECT_NAME":"STARLINK-3948","OBJECT_ID":"2022-051P","EPOCH":"2026-03-09T10:52:55.094880","MEAN_MOTION":15.08830607,"ECCENTRICITY":0.00013077,"INCLINATION":53.2161,"RA_OF_ASC_NODE":129.9475,"ARG_OF_PERICENTER":96.0274,"MEAN_ANOMALY":264.0867,"EPHEMERIS_TYPE":0,"CLASSIFICATION_TYPE":"U","NORAD_CAT_ID":52546,"ELEMENT_SET_NO":999,"REV_AT_EPOCH":21141,"BSTAR":-0.00012723095,"MEAN_MOTION_DOT":-2.312e-5,"MEAN_MOTION_DDOT":0},{"OBJECT_NAME":"NEONSAT-1A","OBJECT_ID":"2026-019A","EPOCH":"2026-03-09T21:53:31.879392","MEAN_MOTION":15.0780294,"ECCENTRICITY":0.00137261,"INCLINATION":97.411,"RA_OF_ASC_NODE":192.4819,"ARG_OF_PERICENTER":167.4713,"MEAN_ANOMALY":192.686,"EPHEMERIS_TYPE":0,"CLASSIFICATION_TYPE":"U","NORAD_CAT_ID":67614,"ELEMENT_SET_NO":999,"REV_AT_EPOCH":585,"BSTAR":0.00027109929,"MEAN_MOTION_DOT":4.096e-5,"MEAN_MOTION_DDOT":0}]
